TEVEL2-1                
1 63217U 25052H   26068.64782323  .00020683  00000+0  70600-3 0  9994
2 63217  97.3991 324.7682 0004767 104.8919 255.2849 15.30341923 54855
STARLINK-34606          
1 64730U 25144G   26068.62522771  .00034051  00000+0  11569-2 0  9996
2 64730  53.1601 181.2267 0000854 103.2301 256.8795 15.30188216 39708
