[{"OBJECT_NAME":"TEVEL2-1","OBJECT_ID":"2025-052H","EPOCH":"2026-03-09T15:32:51.927072","MEAN_MOTION":15.30341923,"ECCENTRICITY":0.0004767,"INCLINATION":97.3991,"RA_OF_ASC_NODE":324.7682,"ARG_OF_PERICENTER":104.8919,"MEAN_ANOMALY":255.2849,"EPHEMERIS_TYPE":0,"CLASSIFICATION_TYPE":"U","NORAD_CAT_ID":63217,"ELEMENT_SET_NO":999,"REV_AT_EPOCH":5485,"BSTAR":0.000706,"MEAN_MOTION_DOT":0.00020683,"MEAN_MOTION_DDOT":0},{"OBJECT_NAME":"STARLINK-34606","OBJECT_ID":"2025-144G","EPOCH":"2026-03-09T15:00:19.674144","MEAN_MOTION":15.30188216,"ECCENTRICITY":8.54e-5,"INCLINATION":53.1601,"RA_OF_ASC_NODE":181.2267,"ARG_OF_PERICENTER":103.2301,"MEAN_ANOMALY":256.8795,"EPHEMERIS_TYPE":0,"CLASSIFICATION_TYPE":"U","NORAD_CAT_ID":64730,"ELEMENT_SET_NO":999,"REV_AT_EPOCH":3970,"BSTAR":0.0011569,"MEAN_MOTION_DOT":0.00034051,"MEAN_MOTION_DDOT":0}]
